{"fetched_at":"2026-07-18T06:28:09.110Z","source":"https://celestrak.org/NORAD/elements/gp.php?NAME=HAWK&FORMAT=JSON","constellation":"hawkeye-360","records":[{"OBJECT_NAME":"HAWK-12A","OBJECT_ID":"2025-138C","EPOCH":"2026-07-17T22:49:55.286112","CLASSIFICATION_TYPE":"U","MEAN_MOTION":15.18415003,"ECCENTRICITY":0.00148258,"INCLINATION":97.4414,"RA_OF_ASC_NODE":201.2249,"ARG_OF_PERICENTER":37.92,"MEAN_ANOMALY":322.3075,"EPHEMERIS_TYPE":0,"NORAD_CAT_ID":64623,"ELEMENT_SET_NO":999,"REV_AT_EPOCH":5853,"BSTAR":0.00011273596,"MEAN_MOTION_DOT":0.00002257,"MEAN_MOTION_DDOT":0},{"OBJECT_NAME":"HAWK-13A","OBJECT_ID":"2026-004AF","EPOCH":"2026-07-17T10:13:12.891360","CLASSIFICATION_TYPE":"U","MEAN_MOTION":15.19368256,"ECCENTRICITY":0.0004352,"INCLINATION":97.4448,"RA_OF_ASC_NODE":196.868,"ARG_OF_PERICENTER":209.2851,"MEAN_ANOMALY":150.814,"EPHEMERIS_TYPE":0,"NORAD_CAT_ID":67392,"ELEMENT_SET_NO":999,"REV_AT_EPOCH":2835,"BSTAR":0.00010387,"MEAN_MOTION_DOT":0.00002129,"MEAN_MOTION_DDOT":0},{"OBJECT_NAME":"HAWK-13C","OBJECT_ID":"2026-004AG","EPOCH":"2026-07-17T10:13:00.346080","CLASSIFICATION_TYPE":"U","MEAN_MOTION":15.19364654,"ECCENTRICITY":0.0004175,"INCLINATION":97.4594,"RA_OF_ASC_NODE":197.2967,"ARG_OF_PERICENTER":212.8872,"MEAN_ANOMALY":147.2103,"EPHEMERIS_TYPE":0,"NORAD_CAT_ID":67393,"ELEMENT_SET_NO":999,"REV_AT_EPOCH":2835,"BSTAR":0.0001036,"MEAN_MOTION_DOT":0.00002122,"MEAN_MOTION_DDOT":0},{"OBJECT_NAME":"HAWK-13B","OBJECT_ID":"2026-004AK","EPOCH":"2026-07-17T22:51:34.057728","CLASSIFICATION_TYPE":"U","MEAN_MOTION":15.1936964,"ECCENTRICITY":0.0005502,"INCLINATION":97.4532,"RA_OF_ASC_NODE":197.6378,"ARG_OF_PERICENTER":212.2912,"MEAN_ANOMALY":147.7987,"EPHEMERIS_TYPE":0,"NORAD_CAT_ID":67396,"ELEMENT_SET_NO":999,"REV_AT_EPOCH":2843,"BSTAR":0.0001089195,"MEAN_MOTION_DOT":0.00002235,"MEAN_MOTION_DDOT":0},{"OBJECT_NAME":"HAWK-14B","OBJECT_ID":"2026-067W","EPOCH":"2026-07-17T20:38:56.674752","CLASSIFICATION_TYPE":"U","MEAN_MOTION":15.1844319,"ECCENTRICITY":0.00012599,"INCLINATION":97.4565,"RA_OF_ASC_NODE":156.8752,"ARG_OF_PERICENTER":348.2993,"MEAN_ANOMALY":11.8211,"EPHEMERIS_TYPE":0,"NORAD_CAT_ID":68436,"ELEMENT_SET_NO":999,"REV_AT_EPOCH":1659,"BSTAR":0.00010603353,"MEAN_MOTION_DOT":0.00002116,"MEAN_MOTION_DDOT":0},{"OBJECT_NAME":"HAWK-14C","OBJECT_ID":"2026-067AB","EPOCH":"2026-07-17T20:39:05.751936","CLASSIFICATION_TYPE":"U","MEAN_MOTION":15.18441149,"ECCENTRICITY":0.00023194,"INCLINATION":97.4503,"RA_OF_ASC_NODE":156.7535,"ARG_OF_PERICENTER":17.8686,"MEAN_ANOMALY":342.263,"EPHEMERIS_TYPE":0,"NORAD_CAT_ID":68441,"ELEMENT_SET_NO":999,"REV_AT_EPOCH":1659,"BSTAR":0.00010780869,"MEAN_MOTION_DOT":0.00002152,"MEAN_MOTION_DDOT":0},{"OBJECT_NAME":"HAWK-14A","OBJECT_ID":"2026-067AJ","EPOCH":"2026-07-17T20:39:15.612768","CLASSIFICATION_TYPE":"U","MEAN_MOTION":15.18444684,"ECCENTRICITY":0.0002958,"INCLINATION":97.4627,"RA_OF_ASC_NODE":157.0038,"ARG_OF_PERICENTER":7.3929,"MEAN_ANOMALY":352.7349,"EPHEMERIS_TYPE":0,"NORAD_CAT_ID":68448,"ELEMENT_SET_NO":999,"REV_AT_EPOCH":1659,"BSTAR":0.00010714261,"MEAN_MOTION_DOT":0.00002138,"MEAN_MOTION_DDOT":0}]}
