HAWK-12A                
1 64623U 25138C   26198.95133433  .00002257  00000+0  11274-3 0  9990
2 64623  97.4414 201.2249 0014825  37.9200 322.3075 15.18415003 58534
HAWK-13A                
1 67392U 26004AF  26198.42584365  .00002129  00000+0  10387-3 0  9997
2 67392  97.4448 196.8680 0004352 209.2851 150.8140 15.19368256 28357
HAWK-13C                
1 67393U 26004AG  26198.42569845  .00002122  00000+0  10360-3 0  9998
2 67393  97.4594 197.2967 0004175 212.8872 147.2103 15.19364654 28356
HAWK-13B                
1 67396U 26004AK  26198.95247752  .00002235  00000+0  10892-3 0  9994
2 67396  97.4532 197.6378 0005502 212.2912 147.7987 15.19369640 28439
HAWK-14B                
1 68436U 26067W   26198.86037818  .00002116  00000+0  10603-3 0  9997
2 68436  97.4565 156.8752 0001259 348.2993  11.8211 15.18443190 16595
HAWK-14C                
1 68441U 26067AB  26198.86048324  .00002152  00000+0  10781-3 0  9994
2 68441  97.4503 156.7535 0002319  17.8686 342.2630 15.18441149 16595
HAWK-14A                
1 68448U 26067AJ  26198.86059737  .00002138  00000+0  10714-3 0  9991
2 68448  97.4627 157.0038 0002958   7.3929 352.7349 15.18444684 16594
